{"type": "FeatureCollection", "features": [ {"type": "Feature", "properties": {"norad_id": 35602, "name": "COSMOS 2251 DEB", "group": "cosmos-2251-debris", "lat": -38.59273110378928, "lon": -2.6649997003027543, "alt_km": 405.60040579831184, "timestamp": "2025-12-21T03:56:51.228897+00:00", "meta": {"OBJECT_NAME": "COSMOS 2251 DEB", "OBJECT_ID": "1993-036AMV", "EPOCH": "2025-12-19T12:02:08.754144", "MEAN_MOTION": 15.3532305, "ECCENTRICITY": 0.0089059, "INCLINATION": 73.9924, "RA_OF_ASC_NODE": 167.6664, "ARG_OF_PERICENTER": 231.9555, "MEAN_ANOMALY": 160.7824, "EPHEMERIS_TYPE": 0, "CLASSIFICATION_TYPE": "U", "NORAD_CAT_ID": 35602, "ELEMENT_SET_NO": 999, "REV_AT_EPOCH": 90195, "BSTAR": 0.00042337, "MEAN_MOTION_DOT": 0.00016543, "MEAN_MOTION_DDOT": 0}, "tle": {"line1": "1 35602U 93036AMV 25353.50149021  .00016543  00000+0  42337-3 0  9997", "line2": "2 35602  73.9924 167.6664 0089059 231.9555 160.7824 15.35323050901958"}}, "geometry": {"type": "Point", "coordinates": [-2.6649997003027543, -38.59273110378928]}}, {"type": "Feature", "properties": {"norad_id": 35605, "name": "COSMOS 2251 DEB", "group": "cosmos-2251-debris", "lat": -66.85172411481372, "lon": -84.25342409000987, "alt_km": 448.39885246229824, "timestamp": "2025-12-21T03:56:51.228906+00:00", "meta": {"OBJECT_NAME": "COSMOS 2251 DEB", "OBJECT_ID": "1993-036AMY", "EPOCH": "2025-12-16T05:30:02.725344", "MEAN_MOTION": 15.35586787, "ECCENTRICITY": 0.00242235, "INCLINATION": 73.8701, "RA_OF_ASC_NODE": 329.0606, "ARG_OF_PERICENTER": 257.5437, "MEAN_ANOMALY": 102.3057, "EPHEMERIS_TYPE": 0, "CLASSIFICATION_TYPE": "U", "NORAD_CAT_ID": 35605, "ELEMENT_SET_NO": 999, "REV_AT_EPOCH": 66025, "BSTAR": 0.0050760725, "MEAN_MOTION_DOT": 0.00181517, "MEAN_MOTION_DDOT": 0}, "tle": {"line1": "1 35605U 93036AMY 25350.22919821  .00181517  00000+0  50761-2 0  9992", "line2": "2 35605  73.8701 329.0606 0024223 257.5437 102.3057 15.35586787660251"}}, "geometry": {"type": "Point", "coordinates": [-84.25342409000987, -66.85172411481372]}}, {"type": "Feature", "properties": {"norad_id": 35606, "name": "COSMOS 2251 DEB", "group": "cosmos-2251-debris", "lat": -4.385035641066746, "lon": 178.6454345852685, "alt_km": 780.0686497981169, "timestamp": "2025-12-21T03:56:51.228915+00:00", "meta": {"OBJECT_NAME": "COSMOS 2251 DEB", "OBJECT_ID": "1993-036AMZ", "EPOCH": "2025-12-20T07:19:19.357824", "MEAN_MOTION": 13.41217944, "ECCENTRICITY": 0.04570022, "INCLINATION": 73.8103, "RA_OF_ASC_NODE": 358.7381, "ARG_OF_PERICENTER": 203.3475, "MEAN_ANOMALY": 154.6278, "EPHEMERIS_TYPE": 0, "CLASSIFICATION_TYPE": "U", "NORAD_CAT_ID": 35606, "ELEMENT_SET_NO": 999, "REV_AT_EPOCH": 61141, "BSTAR": 0.00023847714, "MEAN_MOTION_DOT": 2.22e-06, "MEAN_MOTION_DDOT": 0}, "tle": {"line1": "1 35606U 93036AMZ 25354.30508516  .00000222  00000+0  23848-3 0  9991", "line2": "2 35606  73.8103 358.7381 0457002 203.3475 154.6278 13.41217944611413"}}, "geometry": {"type": "Point", "coordinates": [178.6454345852685, -4.385035641066746]}}, {"type": "Feature", "properties": {"norad_id": 35611, "name": "COSMOS 2251 DEB", "group": "cosmos-2251-debris", "lat": -16.838596445072216, "lon": 157.89964481638197, "alt_km": 660.3479080394236, "timestamp": "2025-12-21T03:56:51.228924+00:00", "meta": {"OBJECT_NAME": "COSMOS 2251 DEB", "OBJECT_ID": "1993-036ANE", "EPOCH": "2025-12-19T11:16:40.848672", "MEAN_MOTION": 14.73020971, "ECCENTRICITY": 0.0021353, "INCLINATION": 74.0189, "RA_OF_ASC_NODE": 166.1787, "ARG_OF_PERICENTER": 238.9125, "MEAN_ANOMALY": 120.9952, "EPHEMERIS_TYPE": 0, "CLASSIFICATION_TYPE": "U", "NORAD_CAT_ID": 35611, "ELEMENT_SET_NO": 999, "REV_AT_EPOCH": 87389, "BSTAR": 0.0015718, "MEAN_MOTION_DOT": 0.0001012, "MEAN_MOTION_DDOT": 0}, "tle": {"line1": "1 35611U 93036ANE 25353.46991723  .00010120  00000+0  15718-2 0  9993", "line2": "2 35611  74.0189 166.1787 0021353 238.9125 120.9952 14.73020971873894"}}, "geometry": {"type": "Point", "coordinates": [157.89964481638197, -16.838596445072216]}}, {"type": "Feature", "properties": {"norad_id": 35614, "name": "COSMOS 2251 DEB", "group": "cosmos-2251-debris", "lat": -68.99801392670902, "lon": -97.41667904069567, "alt_km": 703.7933843143528, "timestamp": "2025-12-21T03:56:51.228932+00:00", "meta": {"OBJECT_NAME": "COSMOS 2251 DEB", "OBJECT_ID": "1993-036ANH", "EPOCH": "2025-12-20T05:23:12.984576", "MEAN_MOTION": 14.67071987, "ECCENTRICITY": 0.0075237, "INCLINATION": 73.9589, "RA_OF_ASC_NODE": 312.9473, "ARG_OF_PERICENTER": 165.4897, "MEAN_ANOMALY": 194.8458, "EPHEMERIS_TYPE": 0, "CLASSIFICATION_TYPE": "U", "NORAD_CAT_ID": 35614, "ELEMENT_SET_NO": 999, "REV_AT_EPOCH": 87839, "BSTAR": 0.00049341, "MEAN_MOTION_DOT": 2.857e-05, "MEAN_MOTION_DDOT": 0}, "tle": {"line1": "1 35614U 93036ANH 25354.22445584  .00002857  00000+0  49341-3 0  9998", "line2": "2 35614  73.9589 312.9473 0075237 165.4897 194.8458 14.67071987878399"}}, "geometry": {"type": "Point", "coordinates": [-97.41667904069567, -68.99801392670902]}}, {"type": "Feature", "properties": {"norad_id": 35645, "name": "COSMOS 2251 DEB", "group": "cosmos-2251-debris", "lat": 67.28463780571401, "lon": 115.34510939233355, "alt_km": 777.7557209630177, "timestamp": "2025-12-21T03:56:51.228941+00:00", "meta": {"OBJECT_NAME": "COSMOS 2251 DEB", "OBJECT_ID": "1993-036ANL", "EPOCH": "2025-12-19T21:42:33.800832", "MEAN_MOTION": 14.45678579, "ECCENTRICITY": 0.0069779, "INCLINATION": 73.9653, "RA_OF_ASC_NODE": 74.3121, "ARG_OF_PERICENTER": 231.253, "MEAN_ANOMALY": 128.2379, "EPHEMERIS_TYPE": 0, "CLASSIFICATION_TYPE": "U", "NORAD_CAT_ID": 35645, "ELEMENT_SET_NO": 999, "REV_AT_EPOCH": 86875, "BSTAR": 0.0013418, "MEAN_MOTION_DOT": 4.868e-05, "MEAN_MOTION_DDOT": 0}, "tle": {"line1": "1 35645U 93036ANL 25353.90455788  .00004868  00000+0  13418-2 0  9992", "line2": "2 35645  73.9653  74.3121 0069779 231.2530 128.2379 14.45678579868752"}}, "geometry": {"type": "Point", "coordinates": [115.34510939233355, 67.28463780571401]}}, {"type": "Feature", "properties": {"norad_id": 35646, "name": "COSMOS 2251 DEB", "group": "cosmos-2251-debris", "lat": 52.64987624627356, "lon": 64.94189868560684, "alt_km": 1118.2451689792251, "timestamp": "2025-12-21T03:56:51.228950+00:00", "meta": {"OBJECT_NAME": "COSMOS 2251 DEB", "OBJECT_ID": "1993-036ANM", "EPOCH": "2025-12-18T13:20:49.282080", "MEAN_MOTION": 13.40829033, "ECCENTRICITY": 0.04564144, "INCLINATION": 73.8718, "RA_OF_ASC_NODE": 46.7997, "ARG_OF_PERICENTER": 156.0103, "MEAN_ANOMALY": 279.1958, "EPHEMERIS_TYPE": 0, "CLASSIFICATION_TYPE": "U", "NORAD_CAT_ID": 35646, "ELEMENT_SET_NO": 999, "REV_AT_EPOCH": 81936, "BSTAR": 0.00040845832, "MEAN_MOTION_DOT": 3.96e-06, "MEAN_MOTION_DDOT": 0}, "tle": {"line1": "1 35646U 93036ANM 25352.55612595  .00000396  00000+0  40846-3 0  9992", "line2": "2 35646  73.8718  46.7997 0456414 156.0103 279.1958 13.40829033819363"}}, "geometry": {"type": "Point", "coordinates": [64.94189868560684, 52.64987624627356]}}, {"type": "Feature", "properties": {"norad_id": 35647, "name": "COSMOS 2251 DEB", "group": "cosmos-2251-debris", "lat": 73.38986429869463, "lon": -7.296229650088785, "alt_km": 727.3553766872565, "timestamp": "2025-12-21T03:56:51.228960+00:00", "meta": {"OBJECT_NAME": "COSMOS 2251 DEB", "OBJECT_ID": "1993-036ANN", "EPOCH": "2025-12-20T12:35:18.566880", "MEAN_MOTION": 14.43670529, "ECCENTRICITY": 0.0045979, "INCLINATION": 74.0241, "RA_OF_ASC_NODE": 280.0829, "ARG_OF_PERICENTER": 17.3675, "MEAN_ANOMALY": 342.9041, "EPHEMERIS_TYPE": 0, "CLASSIFICATION_TYPE": "U", "NORAD_CAT_ID": 35647, "ELEMENT_SET_NO": 999, "REV_AT_EPOCH": 67776, "BSTAR": 0.00050731, "MEAN_MOTION_DOT": 1.718e-05, "MEAN_MOTION_DDOT": 0}, "tle": {"line1": "1 35647U 93036ANN 25354.52452045  .00001718  00000+0  50731-3 0  9997", "line2": "2 35647  74.0241 280.0829 0045979  17.3675 342.9041 14.43670529677764"}}, "geometry": {"type": "Point", "coordinates": [-7.296229650088785, 73.38986429869463]}}, {"type": "Feature", "properties": {"norad_id": 35650, "name": "COSMOS 2251 DEB", "group": "cosmos-2251-debris", "lat": 29.576011836277488, "lon": 11.538884801687061, "alt_km": 605.4164544141458, "timestamp": "2025-12-21T03:56:51.228969+00:00", "meta": {"OBJECT_NAME": "COSMOS 2251 DEB", "OBJECT_ID": "1993-036ANR", "EPOCH": "2025-12-20T00:25:12.388800", "MEAN_MOTION": 14.8379739, "ECCENTRICITY": 0.00149267, "INCLINATION": 74.0451, "RA_OF_ASC_NODE": 4.4654, "ARG_OF_PERICENTER": 48.3662, "MEAN_ANOMALY": 338.4229, "EPHEMERIS_TYPE": 0, "CLASSIFICATION_TYPE": "U", "NORAD_CAT_ID": 35650, "ELEMENT_SET_NO": 999, "REV_AT_EPOCH": 87742, "BSTAR": 0.0010238934, "MEAN_MOTION_DOT": 8.476e-05, "MEAN_MOTION_DDOT": 0}, "tle": {"line1": "1 35650U 93036ANR 25354.01750450  .00008476  00000+0  10239-2 0  9992", "line2": "2 35650  74.0451   4.4654 0014926  48.3662 338.4229 14.83797390877426"}}, "geometry": {"type": "Point", "coordinates": [11.538884801687061, 29.576011836277488]}}, {"type": "Feature", "properties": {"norad_id": 35660, "name": "COSMOS 2251 DEB", "group": "cosmos-2251-debris", "lat": 23.302468379327312, "lon": 124.49776917994441, "alt_km": 731.4961175566077, "timestamp": "2025-12-21T03:56:51.228978+00:00", "meta": {"OBJECT_NAME": "COSMOS 2251 DEB", "OBJECT_ID": "1993-036APB", "EPOCH": "2025-12-15T02:38:46.156416", "MEAN_MOTION": 14.49937403, "ECCENTRICITY": 0.00182984, "INCLINATION": 74.0379, "RA_OF_ASC_NODE": 128.7781, "ARG_OF_PERICENTER": 277.071, "MEAN_ANOMALY": 198.1224, "EPHEMERIS_TYPE": 0, "CLASSIFICATION_TYPE": "U", "NORAD_CAT_ID": 35660, "ELEMENT_SET_NO": 999, "REV_AT_EPOCH": 65905, "BSTAR": 0.00040464315, "MEAN_MOTION_DOT": 1.541e-05, "MEAN_MOTION_DDOT": 0}, "tle": {"line1": "1 35660U 93036APB 25349.11025644  .00001541  00000+0  40464-3 0  9998", "line2": "2 35660  74.0379 128.7781 0018298 277.0710 198.1224 14.49937403659054"}}, "geometry": {"type": "Point", "coordinates": [124.49776917994441, 23.302468379327312]}}]}